CYGNUS NG-24            
1 68689U 26079A   26125.16739473  .00007972  00000+0  15211-3 0  9994
2 68689  51.6303 153.0452 0007358  24.9406 335.1936 15.49102212  3825
PROGRESS-MS 34          
1 68837U 26093A   26125.16739473  .00007972  00000+0  15211-3 0  9995
2 68837  51.6303 153.0452 0007358  24.9406 335.1936 15.49102212  1323
