
    {
        "ARG_OF_PERICENTER": 24.9406,
        "BSTAR": 0.00015211039,
        "CLASSIFICATION_TYPE": "U",
        "ECCENTRICITY": 0.00073582,
        "ELEMENT_SET_NO": 999,
        "EPHEMERIS_TYPE": 0,
        "EPOCH": "2026-05-05T04:01:02.904672",
        "INCLINATION": 51.6303,
        "MEAN_ANOMALY": 335.1936,
        "MEAN_MOTION": 15.49102212,
        "MEAN_MOTION_DDOT": 0,
        "MEAN_MOTION_DOT": 7.972e-05,
        "NORAD_CAT_ID": 68689,
        "OBJECT_ID": "2026-079A",
        "OBJECT_NAME": "CYGNUS NG-24",
        "RA_OF_ASC_NODE": 153.0452,
        "REV_AT_EPOCH": 382
    },
    {
        "ARG_OF_PERICENTER": 24.9406,
        "BSTAR": 0.00015211039,
        "CLASSIFICATION_TYPE": "U",
        "ECCENTRICITY": 0.00073582,
        "ELEMENT_SET_NO": 999,
        "EPHEMERIS_TYPE": 0,
        "EPOCH": "2026-05-05T04:01:02.904672",
        "INCLINATION": 51.6303,
        "MEAN_ANOMALY": 335.1936,
        "MEAN_MOTION": 15.49102212,
        "MEAN_MOTION_DDOT": 0,
        "MEAN_MOTION_DOT": 7.972e-05,
        "NORAD_CAT_ID": 68837,
        "OBJECT_ID": "2026-093A",
        "OBJECT_NAME": "PROGRESS-MS 34",
        "RA_OF_ASC_NODE": 153.0452,
        "REV_AT_EPOCH": 132
    }